{"epoch":1784799577,"count":18318,"objects":[{"id":"66719","name":"FLOCK 4H 16","type":"PAYLOAD","l1":"1 66719U 25276BF  26203.64038486  .00006764  00000-0  31515-3 0  9994","l2":"2 66719  97.4220 276.6608 0003305 218.7833 141.3165 15.20215591 35801"},{"id":"66721","name":"FLOCK 4H 18","type":"PAYLOAD","l1":"1 66721U 25276BH  26203.44935926  .00006574  00000-0  30693-3 0  9995","l2":"2 66721  97.4163 276.2799 0002371 248.6173 111.4809 15.20156902 35777"},{"id":"66722","name":"FLOCK 4H 19","type":"PAYLOAD","l1":"1 66722U 25276BJ  26203.64029219  .00005709  00000-0  25797-3 0  9995","l2":"2 66722  97.4162 276.9436 0002914 135.2689 224.8783 15.21341042 35129"},{"id":"66723","name":"FLOCK 4H 20","type":"PAYLOAD","l1":"1 66723U 25276BK  26203.51009974  .00006687  00000-0  30009-3 0  9996","l2":"2 66723  97.4199 276.9269 0003531 151.3798 208.7632 15.21509079 35063"},{"id":"66724","name":"FLOCK 4H 21","type":"PAYLOAD","l1":"1 66724U 25276BL  26203.93815965  .00007722  00000-0  35014-3 0  9990","l2":"2 66724  97.4163 277.1640 0003396 149.8274 210.3158 15.21101473 35126"},{"id":"66725","name":"FLOCK 4H 22","type":"PAYLOAD","l1":"1 66725U 25276BM  26203.91947214  .00007508  00000-0  34559-3 0  9997","l2":"2 66725  97.4157 276.8498 0001237 230.9303 129.1822 15.20598974 35854"},{"id":"66726","name":"FLOCK 4H 23","type":"PAYLOAD","l1":"1 66726U 25276BN  26203.64627905  .00006445  00000-0  30113-3 0  9991","l2":"2 66726  97.4226 276.6673 0003605 209.9412 150.1618 15.20136794 35803"},{"id":"66727","name":"FLOCK 4H 24","type":"PAYLOAD","l1":"1 66727U 25276BP  26203.63052623  .00007198  00000-0  33483-3 0  9999","l2":"2 66727  97.4219 276.6815 0002782 227.1173 132.9829 15.20247509 35804"},{"id":"66728","name":"FLOCK 4H 25","type":"PAYLOAD","l1":"1 66728U 25276BQ  26203.16760245  .00006203  00000-0  28275-3 0  9993","l2":"2 66728  97.4176 276.3972 0002136 120.7620 239.3826 15.21004730 35038"},{"id":"66729","name":"FLOCK 4H 26","type":"PAYLOAD","l1":"1 66729U 25276BR  26203.66531597  .00006675  00000-0  31323-3 0  9996","l2":"2 66729  97.4172 276.4900 0003670 229.3019 130.7898 15.19969709 35800"},{"id":"66730","name":"FLOCK 4H 27","type":"PAYLOAD","l1":"1 66730U 25276BS  26203.92277883  .00006823  00000-0  31217-3 0  9999","l2":"2 66730  97.4153 276.9895 0001903 124.3041 235.8375 15.20838907 35865"},{"id":"66732","name":"FLOCK 4H 29","type":"PAYLOAD","l1":"1 66732U 25276BU  26203.51250317  .00006237  00000-0  29180-3 0  9994","l2":"2 66732  97.4154 276.3217 0001926 236.5377 123.5675 15.20106880 35788"},{"id":"66733","name":"FLOCK 4H 30","type":"PAYLOAD","l1":"1 66733U 25276BV  26203.63545258  .00006923  00000-0  32227-3 0  9997","l2":"2 66733  97.4214 276.6573 0003099 226.6443 133.4534 15.20235372 35807"},{"id":"66734","name":"FLOCK 4H 31","type":"PAYLOAD","l1":"1 66734U 25276BW  26203.46004628  .00006319  00000-0  29647-3 0  9991","l2":"2 66734  97.4152 276.2361 0002392 235.3394 124.7616 15.20003025 35775"},{"id":"66735","name":"FLOCK 4H 32","type":"PAYLOAD","l1":"1 66735U 25276BX  26203.44738178  .00006197  00000-0  28980-3 0  9997","l2":"2 66735  97.4211 276.4265 0003451 226.6221 133.4727 15.20122209 35772"},{"id":"66736","name":"FLOCK 4H 33","type":"PAYLOAD","l1":"1 66736U 25276BY  26203.66329838  .00006094  00000-0  27584-3 0  9996","l2":"2 66736  97.4205 277.0441 0003352 145.1929 214.9526 15.21251707 35835"}]}