{"fetched_at":"2026-07-23T07:05:20.500Z","source":"https://celestrak.org/NORAD/elements/gp.php?GROUP=planet&FORMAT=JSON","constellation":"superdove","records":[{"OBJECT_NAME":"FLOCK 4H-16","OBJECT_ID":"2025-276BF","EPOCH":"2026-07-22T15:22:09.251904","CLASSIFICATION_TYPE":"U","MEAN_MOTION":15.20215591,"ECCENTRICITY":0.00033051,"INCLINATION":97.422,"RA_OF_ASC_NODE":276.6608,"ARG_OF_PERICENTER":218.7833,"MEAN_ANOMALY":141.3165,"EPHEMERIS_TYPE":0,"NORAD_CAT_ID":66719,"ELEMENT_SET_NO":999,"REV_AT_EPOCH":3580,"BSTAR":0.00031515209,"MEAN_MOTION_DOT":0.00006764,"MEAN_MOTION_DDOT":0},{"OBJECT_NAME":"FLOCK 4H-18","OBJECT_ID":"2025-276BH","EPOCH":"2026-07-22T10:47:04.640064","CLASSIFICATION_TYPE":"U","MEAN_MOTION":15.20156902,"ECCENTRICITY":0.00023714,"INCLINATION":97.4163,"RA_OF_ASC_NODE":276.2799,"ARG_OF_PERICENTER":248.6173,"MEAN_ANOMALY":111.4809,"EPHEMERIS_TYPE":0,"NORAD_CAT_ID":66721,"ELEMENT_SET_NO":999,"REV_AT_EPOCH":3577,"BSTAR":0.00030693054,"MEAN_MOTION_DOT":0.00006574,"MEAN_MOTION_DDOT":0},{"OBJECT_NAME":"FLOCK 4H-19","OBJECT_ID":"2025-276BJ","EPOCH":"2026-07-22T15:22:01.245216","CLASSIFICATION_TYPE":"U","MEAN_MOTION":15.21341042,"ECCENTRICITY":0.00029138,"INCLINATION":97.4162,"RA_OF_ASC_NODE":276.9436,"ARG_OF_PERICENTER":135.2689,"MEAN_ANOMALY":224.8783,"EPHEMERIS_TYPE":0,"NORAD_CAT_ID":66722,"ELEMENT_SET_NO":999,"REV_AT_EPOCH":3512,"BSTAR":0.00025797101,"MEAN_MOTION_DOT":0.00005709,"MEAN_MOTION_DDOT":0},{"OBJECT_NAME":"FLOCK 4H-20","OBJECT_ID":"2025-276BK","EPOCH":"2026-07-22T12:14:32.617536","CLASSIFICATION_TYPE":"U","MEAN_MOTION":15.21509079,"ECCENTRICITY":0.00035307,"INCLINATION":97.4199,"RA_OF_ASC_NODE":276.9269,"ARG_OF_PERICENTER":151.3798,"MEAN_ANOMALY":208.7632,"EPHEMERIS_TYPE":0,"NORAD_CAT_ID":66723,"ELEMENT_SET_NO":999,"REV_AT_EPOCH":3506,"BSTAR":0.00030008778,"MEAN_MOTION_DOT":0.00006687,"MEAN_MOTION_DDOT":0},{"OBJECT_NAME":"FLOCK 4H-21","OBJECT_ID":"2025-276BL","EPOCH":"2026-07-22T22:30:56.993760","CLASSIFICATION_TYPE":"U","MEAN_MOTION":15.21101473,"ECCENTRICITY":0.00033961,"INCLINATION":97.4163,"RA_OF_ASC_NODE":277.164,"ARG_OF_PERICENTER":149.8274,"MEAN_ANOMALY":210.3158,"EPHEMERIS_TYPE":0,"NORAD_CAT_ID":66724,"ELEMENT_SET_NO":999,"REV_AT_EPOCH":3512,"BSTAR":0.00035014009,"MEAN_MOTION_DOT":0.00007722,"MEAN_MOTION_DDOT":0},{"OBJECT_NAME":"FLOCK 4H-22","OBJECT_ID":"2025-276BM","EPOCH":"2026-07-22T22:04:02.392896","CLASSIFICATION_TYPE":"U","MEAN_MOTION":15.20598974,"ECCENTRICITY":0.00012365,"INCLINATION":97.4157,"RA_OF_ASC_NODE":276.8498,"ARG_OF_PERICENTER":230.9303,"MEAN_ANOMALY":129.1822,"EPHEMERIS_TYPE":0,"NORAD_CAT_ID":66725,"ELEMENT_SET_NO":999,"REV_AT_EPOCH":3585,"BSTAR":0.00034558791,"MEAN_MOTION_DOT":0.00007508,"MEAN_MOTION_DDOT":0},{"OBJECT_NAME":"FLOCK 4H-23","OBJECT_ID":"2025-276BN","EPOCH":"2026-07-22T15:30:38.509920","CLASSIFICATION_TYPE":"U","MEAN_MOTION":15.20136794,"ECCENTRICITY":0.00036054,"INCLINATION":97.4226,"RA_OF_ASC_NODE":276.6673,"ARG_OF_PERICENTER":209.9412,"MEAN_ANOMALY":150.1618,"EPHEMERIS_TYPE":0,"NORAD_CAT_ID":66726,"ELEMENT_SET_NO":999,"REV_AT_EPOCH":3580,"BSTAR":0.00030113107,"MEAN_MOTION_DOT":0.00006445,"MEAN_MOTION_DDOT":0},{"OBJECT_NAME":"FLOCK 4H-24","OBJECT_ID":"2025-276BP","EPOCH":"2026-07-22T15:07:57.466272","CLASSIFICATION_TYPE":"U","MEAN_MOTION":15.20247509,"ECCENTRICITY":0.00027822,"INCLINATION":97.4219,"RA_OF_ASC_NODE":276.6815,"ARG_OF_PERICENTER":227.1173,"MEAN_ANOMALY":132.9829,"EPHEMERIS_TYPE":0,"NORAD_CAT_ID":66727,"ELEMENT_SET_NO":999,"REV_AT_EPOCH":3580,"BSTAR":0.0003348265,"MEAN_MOTION_DOT":0.00007198,"MEAN_MOTION_DDOT":0},{"OBJECT_NAME":"FLOCK 4H-25","OBJECT_ID":"2025-276BQ","EPOCH":"2026-07-22T04:01:20.851680","CLASSIFICATION_TYPE":"U","MEAN_MOTION":15.2100473,"ECCENTRICITY":0.00021362,"INCLINATION":97.4176,"RA_OF_ASC_NODE":276.3972,"ARG_OF_PERICENTER":120.762,"MEAN_ANOMALY":239.3826,"EPHEMERIS_TYPE":0,"NORAD_CAT_ID":66728,"ELEMENT_SET_NO":999,"REV_AT_EPOCH":3503,"BSTAR":0.00028275479,"MEAN_MOTION_DOT":0.00006203,"MEAN_MOTION_DDOT":0},{"OBJECT_NAME":"FLOCK 4H-26","OBJECT_ID":"2025-276BR","EPOCH":"2026-07-22T15:58:03.299808","CLASSIFICATION_TYPE":"U","MEAN_MOTION":15.19969709,"ECCENTRICITY":0.00036703,"INCLINATION":97.4172,"RA_OF_ASC_NODE":276.49,"ARG_OF_PERICENTER":229.3019,"MEAN_ANOMALY":130.7898,"EPHEMERIS_TYPE":0,"NORAD_CAT_ID":66729,"ELEMENT_SET_NO":999,"REV_AT_EPOCH":3580,"BSTAR":0.00031323136,"MEAN_MOTION_DOT":0.00006675,"MEAN_MOTION_DDOT":0},{"OBJECT_NAME":"FLOCK 4H-27","OBJECT_ID":"2025-276BS","EPOCH":"2026-07-22T22:08:48.090912","CLASSIFICATION_TYPE":"U","MEAN_MOTION":15.20838907,"ECCENTRICITY":0.00019025,"INCLINATION":97.4153,"RA_OF_ASC_NODE":276.9895,"ARG_OF_PERICENTER":124.3041,"MEAN_ANOMALY":235.8375,"EPHEMERIS_TYPE":0,"NORAD_CAT_ID":66730,"ELEMENT_SET_NO":999,"REV_AT_EPOCH":3586,"BSTAR":0.00031216936,"MEAN_MOTION_DOT":0.00006823,"MEAN_MOTION_DDOT":0},{"OBJECT_NAME":"FLOCK 4H-29","OBJECT_ID":"2025-276BU","EPOCH":"2026-07-22T12:18:00.273888","CLASSIFICATION_TYPE":"U","MEAN_MOTION":15.2010688,"ECCENTRICITY":0.00019261,"INCLINATION":97.4154,"RA_OF_ASC_NODE":276.3217,"ARG_OF_PERICENTER":236.5377,"MEAN_ANOMALY":123.5675,"EPHEMERIS_TYPE":0,"NORAD_CAT_ID":66732,"ELEMENT_SET_NO":999,"REV_AT_EPOCH":3578,"BSTAR":0.00029179885,"MEAN_MOTION_DOT":0.00006237,"MEAN_MOTION_DDOT":0},{"OBJECT_NAME":"FLOCK 4H-30","OBJECT_ID":"2025-276BV","EPOCH":"2026-07-22T15:15:03.102912","CLASSIFICATION_TYPE":"U","MEAN_MOTION":15.20235372,"ECCENTRICITY":0.00030992,"INCLINATION":97.4214,"RA_OF_ASC_NODE":276.6573,"ARG_OF_PERICENTER":226.6443,"MEAN_ANOMALY":133.4534,"EPHEMERIS_TYPE":0,"NORAD_CAT_ID":66733,"ELEMENT_SET_NO":999,"REV_AT_EPOCH":3580,"BSTAR":0.00032227396,"MEAN_MOTION_DOT":0.00006923,"MEAN_MOTION_DDOT":0},{"OBJECT_NAME":"FLOCK 4H-31","OBJECT_ID":"2025-276BW","EPOCH":"2026-07-22T11:02:27.998592","CLASSIFICATION_TYPE":"U","MEAN_MOTION":15.20003025,"ECCENTRICITY":0.00023917,"INCLINATION":97.4152,"RA_OF_ASC_NODE":276.2361,"ARG_OF_PERICENTER":235.3394,"MEAN_ANOMALY":124.7616,"EPHEMERIS_TYPE":0,"NORAD_CAT_ID":66734,"ELEMENT_SET_NO":999,"REV_AT_EPOCH":3577,"BSTAR":0.00029647318,"MEAN_MOTION_DOT":0.00006319,"MEAN_MOTION_DDOT":0},{"OBJECT_NAME":"FLOCK 4H-32","OBJECT_ID":"2025-276BX","EPOCH":"2026-07-22T10:44:13.785792","CLASSIFICATION_TYPE":"U","MEAN_MOTION":15.20122209,"ECCENTRICITY":0.00034511,"INCLINATION":97.4211,"RA_OF_ASC_NODE":276.4265,"ARG_OF_PERICENTER":226.6221,"MEAN_ANOMALY":133.4727,"EPHEMERIS_TYPE":0,"NORAD_CAT_ID":66735,"ELEMENT_SET_NO":999,"REV_AT_EPOCH":3577,"BSTAR":0.00028980154,"MEAN_MOTION_DOT":0.00006197,"MEAN_MOTION_DDOT":0},{"OBJECT_NAME":"FLOCK 4H-33","OBJECT_ID":"2025-276BY","EPOCH":"2026-07-22T15:55:08.980032","CLASSIFICATION_TYPE":"U","MEAN_MOTION":15.21251707,"ECCENTRICITY":0.00033523,"INCLINATION":97.4205,"RA_OF_ASC_NODE":277.0441,"ARG_OF_PERICENTER":145.1929,"MEAN_ANOMALY":214.9526,"EPHEMERIS_TYPE":0,"NORAD_CAT_ID":66736,"ELEMENT_SET_NO":999,"REV_AT_EPOCH":3583,"BSTAR":0.00027583551,"MEAN_MOTION_DOT":0.00006094,"MEAN_MOTION_DDOT":0}]}
